{
  "norad_id": 45237,
  "name": "STARLINK-1270",
  "history": [
    {
      "epoch": "2026-03-28T18:01:25.929120Z",
      "apogee_km": 417.9554233266708,
      "perigee_km": 415.6369921161968,
      "latitude_deg": -3.4780953775857185e-05,
      "longitude_deg": 159.7655861069327,
      "height_km": 418.7223649734786,
      "semi_major_axis_km": 6794.933207721434,
      "eccentricity": 0.0001706,
      "inclination_deg": 53.0466,
      "raan_deg": 256.2906,
      "arg_perigee_deg": 207.2915,
      "mean_anomaly_deg": 152.8003,
      "mean_motion_rev_day": 15.49976001
    },
    {
      "epoch": "2026-03-30T04:03:57.696192Z",
      "apogee_km": 416.87181171745124,
      "perigee_km": 414.97083419868886,
      "latitude_deg": -4.186342617910286e-05,
      "longitude_deg": 0.9277568854869065,
      "height_km": 417.45078889982165,
      "semi_major_axis_km": 6794.05832295807,
      "eccentricity": 0.0001399,
      "inclination_deg": 53.0478,
      "raan_deg": 249.4832,
      "arg_perigee_deg": 228.2468,
      "mean_anomaly_deg": 131.842,
      "mean_motion_rev_day": 15.50275401
    },
    {
      "epoch": "2026-03-30T10:15:17.143200Z",
      "apogee_km": 416.7620587838246,
      "perigee_km": 414.7308235125902,
      "latitude_deg": 7.778307412625374e-05,
      "longitude_deg": -93.39644484180879,
      "height_km": 417.22758180279527,
      "semi_major_axis_km": 6793.883441148207,
      "eccentricity": 0.00014949,
      "inclination_deg": 53.0482,
      "raan_deg": 248.2441,
      "arg_perigee_deg": 234.8723,
      "mean_anomaly_deg": 125.2146,
      "mean_motion_rev_day": 15.5033526
    }
  ]
}